{
  "type": "FeatureCollection",
  "name": "Mount Whitney Trail — Portal to Summit",
  "metadata": {
    "description": "Whitney Portal to Mt. Whitney summit via the Mount Whitney Trail — the classic east-side approach. Trail line from a GaiaGPS GPX; waypoints snapped to the trail at their known elevations.",
    "route": "Mount Whitney Trail",
    "trailhead": "Whitney Portal, Inyo National Forest, California",
    "length_miles_one_way": 9.85,
    "elevation_gain_ft": 6145,
    "attribution": "Trail: GaiaGPS Mount Whitney known route. Waypoint identity/naming: memoir SVG map. Coordinate cross-checks: Wikipedia, Mountain Project, USGS.",
    "coordinate_system": "EPSG:4326 (WGS84 lon/lat)"
  },
  "features": [
    {
      "type": "Feature",
      "id": "whitney-portal",
      "geometry": {
        "type": "Point",
        "coordinates": [
          -118.240143,
          36.587074
        ]
      },
      "properties": {
        "name": "Whitney Portal",
        "elevation_ft": 8360,
        "mile": 0.0,
        "waypoint_order": 1,
        "camp_night": 1,
        "type": "trailhead",
        "description": "Trailhead. 13.7 miles west of Lone Pine. Camp 1 — the starting point.",
        "marker_style": "trailhead"
      }
    },
    {
      "type": "Feature",
      "id": "outpost-camp",
      "geometry": {
        "type": "Point",
        "coordinates": [
          -118.253197,
          36.572692
        ]
      },
      "properties": {
        "name": "Outpost Camp",
        "elevation_ft": 10365,
        "mile": 3.2,
        "waypoint_order": 2,
        "camp_night": 3,
        "type": "camp",
        "description": "10,365 ft. Camp 3 — used on the descent on day 3.",
        "marker_style": "camp"
      }
    },
    {
      "type": "Feature",
      "id": "trail-camp",
      "geometry": {
        "type": "Point",
        "coordinates": [
          -118.277192,
          36.563423
        ]
      },
      "properties": {
        "name": "Trail Camp",
        "elevation_ft": 12000,
        "mile": 5.8,
        "waypoint_order": 3,
        "camp_night": 2,
        "type": "camp",
        "description": "12,000 ft. Camp 2 — reached after 10.5 hours from the Portal on day 1. Below the 99 switchbacks.",
        "marker_style": "camp"
      }
    },
    {
      "type": "Feature",
      "id": "trail-crest",
      "geometry": {
        "type": "Point",
        "coordinates": [
          -118.292557,
          36.569999
        ]
      },
      "properties": {
        "name": "Trail Crest",
        "elevation_ft": 13600,
        "mile": 9.0,
        "waypoint_order": 4,
        "camp_night": null,
        "type": "pass",
        "description": "13,600 ft. Highest trail pass in the United States. Sierra Nevada crest — Inyo National Forest ends, Sequoia National Park begins. Top of the 99 switchbacks from Trail Camp.",
        "marker_style": "pass"
      }
    },
    {
      "type": "Feature",
      "id": "mount-whitney-summit",
      "geometry": {
        "type": "Point",
        "coordinates": [
          -118.292473,
          36.578475
        ]
      },
      "properties": {
        "name": "Mt. Whitney Summit",
        "elevation_ft": 14505,
        "mile": 9.8,
        "waypoint_order": 5,
        "camp_night": null,
        "type": "summit",
        "description": "14,505 ft. Highest point in the contiguous United States. Southern terminus of the John Muir Trail. Summit hut (Smithsonian Institution Shelter) with a register.",
        "marker_style": "summit"
      }
    },
    {
      "type": "Feature",
      "id": "route-actual",
      "geometry": {
        "type": "LineString",
        "coordinates": [
          [
            -118.240143,
            36.587074
          ],
          [
            -118.240075,
            36.587104
          ],
          [
            -118.240014,
            36.587192
          ],
          [
            -118.240067,
            36.587249
          ],
          [
            -118.240181,
            36.587261
          ],
          [
            -118.240189,
            36.587368
          ],
          [
            -118.240311,
            36.587375
          ],
          [
            -118.240296,
            36.587493
          ],
          [
            -118.240235,
            36.58768
          ],
          [
            -118.240265,
            36.587871
          ],
          [
            -118.240326,
            36.588005
          ],
          [
            -118.240441,
            36.588104
          ],
          [
            -118.240304,
            36.588264
          ],
          [
            -118.240105,
            36.588409
          ],
          [
            -118.239609,
            36.588775
          ],
          [
            -118.239243,
            36.589031
          ],
          [
            -118.238869,
            36.589237
          ],
          [
            -118.238633,
            36.589385
          ],
          [
            -118.23864,
            36.589622
          ],
          [
            -118.238579,
            36.589984
          ],
          [
            -118.238633,
            36.589939
          ],
          [
            -118.23874,
            36.589694
          ],
          [
            -118.238801,
            36.589485
          ],
          [
            -118.239731,
            36.589202
          ],
          [
            -118.240059,
            36.589073
          ],
          [
            -118.240372,
            36.588951
          ],
          [
            -118.24083,
            36.588882
          ],
          [
            -118.240937,
            36.58892
          ],
          [
            -118.24112,
            36.589027
          ],
          [
            -118.241402,
            36.589172
          ],
          [
            -118.241707,
            36.589309
          ],
          [
            -118.242287,
            36.589324
          ],
          [
            -118.242501,
            36.589286
          ],
          [
            -118.242409,
            36.589096
          ],
          [
            -118.242455,
            36.588558
          ],
          [
            -118.242432,
            36.588336
          ],
          [
            -118.242516,
            36.588134
          ],
          [
            -118.24276,
            36.588027
          ],
          [
            -118.242966,
            36.588035
          ],
          [
            -118.243317,
            36.587974
          ],
          [
            -118.243859,
            36.587776
          ],
          [
            -118.244164,
            36.587577
          ],
          [
            -118.244545,
            36.587436
          ],
          [
            -118.244874,
            36.587257
          ],
          [
            -118.245019,
            36.587089
          ],
          [
            -118.245301,
            36.586925
          ],
          [
            -118.245339,
            36.586887
          ],
          [
            -118.245339,
            36.58683
          ],
          [
            -118.245255,
            36.586723
          ],
          [
            -118.244866,
            36.586597
          ],
          [
            -118.244744,
            36.586452
          ],
          [
            -118.244652,
            36.5862
          ],
          [
            -118.24453,
            36.586074
          ],
          [
            -118.244462,
            36.585968
          ],
          [
            -118.244393,
            36.585826
          ],
          [
            -118.244278,
            36.585628
          ],
          [
            -118.244675,
            36.585807
          ],
          [
            -118.244538,
            36.585628
          ],
          [
            -118.2445,
            36.585281
          ],
          [
            -118.244568,
            36.585189
          ],
          [
            -118.244553,
            36.585021
          ],
          [
            -118.24469,
            36.585174
          ],
          [
            -118.244721,
            36.585323
          ],
          [
            -118.244782,
            36.585391
          ],
          [
            -118.244858,
            36.585037
          ],
          [
            -118.24495,
            36.584842
          ],
          [
            -118.244996,
            36.585117
          ],
          [
            -118.245049,
            36.585258
          ],
          [
            -118.24527,
            36.584632
          ],
          [
            -118.245324,
            36.584716
          ],
          [
            -118.245377,
            36.584991
          ],
          [
            -118.24553,
            36.584587
          ],
          [
            -118.245568,
            36.584854
          ],
          [
            -118.24556,
            36.584987
          ],
          [
            -118.245675,
            36.584835
          ],
          [
            -118.245995,
            36.584327
          ],
          [
            -118.246209,
            36.584171
          ],
          [
            -118.246316,
            36.583995
          ],
          [
            -118.246758,
            36.583663
          ],
          [
            -118.247056,
            36.583534
          ],
          [
            -118.247353,
            36.583293
          ],
          [
            -118.247681,
            36.583137
          ],
          [
            -118.247918,
            36.582901
          ],
          [
            -118.248086,
            36.582614
          ],
          [
            -118.248147,
            36.582668
          ],
          [
            -118.24807,
            36.582942
          ],
          [
            -118.248223,
            36.582782
          ],
          [
            -118.248345,
            36.582607
          ],
          [
            -118.248597,
            36.582298
          ],
          [
            -118.248536,
            36.582077
          ],
          [
            -118.248322,
            36.581844
          ],
          [
            -118.248284,
            36.58176
          ],
          [
            -118.248269,
            36.58168
          ],
          [
            -118.248299,
            36.581672
          ],
          [
            -118.248429,
            36.58171
          ],
          [
            -118.248429,
            36.581665
          ],
          [
            -118.248391,
            36.581466
          ],
          [
            -118.248353,
            36.580932
          ],
          [
            -118.24849,
            36.581069
          ],
          [
            -118.248902,
            36.581382
          ],
          [
            -118.248993,
            36.581554
          ],
          [
            -118.249161,
            36.581584
          ],
          [
            -118.249329,
            36.581645
          ],
          [
            -118.249505,
            36.581821
          ],
          [
            -118.24955,
            36.581958
          ],
          [
            -118.249619,
            36.581878
          ],
          [
            -118.249604,
            36.581729
          ],
          [
            -118.24965,
            36.581615
          ],
          [
            -118.249634,
            36.58152
          ],
          [
            -118.24968,
            36.581512
          ],
          [
            -118.249733,
            36.581577
          ],
          [
            -118.249886,
            36.581981
          ],
          [
            -118.249955,
            36.582099
          ],
          [
            -118.249985,
            36.581813
          ],
          [
            -118.250062,
            36.581623
          ],
          [
            -118.250107,
            36.581291
          ],
          [
            -118.249917,
            36.580825
          ],
          [
            -118.249917,
            36.580738
          ],
          [
            -118.24997,
            36.580673
          ],
          [
            -118.250107,
            36.580799
          ],
          [
            -118.250199,
            36.580848
          ],
          [
            -118.250237,
            36.580684
          ],
          [
            -118.250329,
            36.580532
          ],
          [
            -118.250275,
            36.580314
          ],
          [
            -118.250161,
            36.580196
          ],
          [
            -118.25013,
            36.580116
          ],
          [
            -118.25029,
            36.580165
          ],
          [
            -118.250412,
            36.580242
          ],
          [
            -118.250565,
            36.580474
          ],
          [
            -118.250695,
            36.580722
          ],
          [
            -118.25087,
            36.580871
          ],
          [
            -118.250893,
            36.581268
          ],
          [
            -118.251,
            36.581375
          ],
          [
            -118.250985,
            36.581256
          ],
          [
            -118.251053,
            36.581073
          ],
          [
            -118.251229,
            36.580844
          ],
          [
            -118.251267,
            36.580631
          ],
          [
            -118.251206,
            36.58041
          ],
          [
            -118.251221,
            36.5802
          ],
          [
            -118.251046,
            36.579853
          ],
          [
            -118.251015,
            36.579559
          ],
          [
            -118.250893,
            36.579288
          ],
          [
            -118.250969,
            36.579273
          ],
          [
            -118.251092,
            36.579368
          ],
          [
            -118.251137,
            36.579441
          ],
          [
            -118.251511,
            36.57978
          ],
          [
            -118.251641,
            36.580047
          ],
          [
            -118.25174,
            36.580276
          ],
          [
            -118.251793,
            36.580245
          ],
          [
            -118.251671,
            36.579036
          ],
          [
            -118.251763,
            36.578868
          ],
          [
            -118.251778,
            36.578647
          ],
          [
            -118.251656,
            36.578498
          ],
          [
            -118.251328,
            36.578281
          ],
          [
            -118.251137,
            36.578048
          ],
          [
            -118.25103,
            36.577922
          ],
          [
            -118.251053,
            36.577823
          ],
          [
            -118.251175,
            36.577781
          ],
          [
            -118.251336,
            36.57777
          ],
          [
            -118.25158,
            36.577701
          ],
          [
            -118.251618,
            36.577579
          ],
          [
            -118.251694,
            36.577423
          ],
          [
            -118.251633,
            36.57669
          ],
          [
            -118.251526,
            36.576583
          ],
          [
            -118.251648,
            36.576419
          ],
          [
            -118.251633,
            36.576141
          ],
          [
            -118.251519,
            36.575878
          ],
          [
            -118.251565,
            36.575607
          ],
          [
            -118.251503,
            36.575481
          ],
          [
            -118.25129,
            36.575473
          ],
          [
            -118.251221,
            36.57545
          ],
          [
            -118.251114,
            36.575431
          ],
          [
            -118.250962,
            36.575366
          ],
          [
            -118.250794,
            36.575244
          ],
          [
            -118.250557,
            36.575168
          ],
          [
            -118.250458,
            36.575107
          ],
          [
            -118.250466,
            36.575019
          ],
          [
            -118.25058,
            36.57481
          ],
          [
            -118.250588,
            36.574623
          ],
          [
            -118.250634,
            36.57447
          ],
          [
            -118.250725,
            36.574317
          ],
          [
            -118.250878,
            36.574127
          ],
          [
            -118.251069,
            36.57405
          ],
          [
            -118.251328,
            36.574035
          ],
          [
            -118.251603,
            36.573867
          ],
          [
            -118.251771,
            36.57378
          ],
          [
            -118.251877,
            36.573703
          ],
          [
            -118.251931,
            36.57368
          ],
          [
            -118.252068,
            36.573604
          ],
          [
            -118.252121,
            36.573474
          ],
          [
            -118.252183,
            36.573459
          ],
          [
            -118.252167,
            36.573669
          ],
          [
            -118.252282,
            36.573528
          ],
          [
            -118.25235,
            36.573295
          ],
          [
            -118.252327,
            36.573135
          ],
          [
            -118.252175,
            36.572772
          ],
          [
            -118.252274,
            36.572803
          ],
          [
            -118.252656,
            36.573001
          ],
          [
            -118.252839,
            36.5732
          ],
          [
            -118.252854,
            36.573314
          ],
          [
            -118.252823,
            36.573417
          ],
          [
            -118.252739,
            36.573528
          ],
          [
            -118.252739,
            36.573547
          ],
          [
            -118.252938,
            36.57339
          ],
          [
            -118.253037,
            36.57331
          ],
          [
            -118.252999,
            36.573436
          ],
          [
            -118.252823,
            36.57365
          ],
          [
            -118.253113,
            36.573478
          ],
          [
            -118.253266,
            36.573444
          ],
          [
            -118.253357,
            36.573371
          ],
          [
            -118.253319,
            36.573043
          ],
          [
            -118.253197,
            36.572803
          ],
          [
            -118.253197,
            36.572692
          ],
          [
            -118.253289,
            36.572738
          ],
          [
            -118.253548,
            36.572887
          ],
          [
            -118.25367,
            36.572986
          ],
          [
            -118.253747,
            36.573116
          ],
          [
            -118.253838,
            36.573192
          ],
          [
            -118.254097,
            36.573234
          ],
          [
            -118.254357,
            36.573139
          ],
          [
            -118.254586,
            36.573093
          ],
          [
            -118.254677,
            36.573089
          ],
          [
            -118.254654,
            36.57315
          ],
          [
            -118.254685,
            36.573196
          ],
          [
            -118.25483,
            36.573146
          ],
          [
            -118.255166,
            36.572898
          ],
          [
            -118.255532,
            36.572643
          ],
          [
            -118.255669,
            36.572422
          ],
          [
            -118.255768,
            36.572238
          ],
          [
            -118.256104,
            36.57204
          ],
          [
            -118.256348,
            36.571792
          ],
          [
            -118.256478,
            36.571559
          ],
          [
            -118.256737,
            36.571331
          ],
          [
            -118.257348,
            36.571025
          ],
          [
            -118.257485,
            36.570941
          ],
          [
            -118.257706,
            36.570941
          ],
          [
            -118.257859,
            36.570957
          ],
          [
            -118.257966,
            36.570995
          ],
          [
            -118.258156,
            36.571105
          ],
          [
            -118.258309,
            36.571125
          ],
          [
            -118.258461,
            36.571063
          ],
          [
            -118.258523,
            36.57109
          ],
          [
            -118.258523,
            36.571182
          ],
          [
            -118.258576,
            36.571323
          ],
          [
            -118.25866,
            36.571357
          ],
          [
            -118.259011,
            36.571758
          ],
          [
            -118.259438,
            36.572109
          ],
          [
            -118.259553,
            36.572048
          ],
          [
            -118.259583,
            36.572189
          ],
          [
            -118.259697,
            36.572044
          ],
          [
            -118.259697,
            36.572177
          ],
          [
            -118.259804,
            36.572029
          ],
          [
            -118.25982,
            36.572063
          ],
          [
            -118.259797,
            36.572273
          ],
          [
            -118.259995,
            36.572101
          ],
          [
            -118.260026,
            36.572132
          ],
          [
            -118.259957,
            36.572254
          ],
          [
            -118.259926,
            36.572319
          ],
          [
            -118.259911,
            36.572364
          ],
          [
            -118.26014,
            36.572174
          ],
          [
            -118.260209,
            36.572177
          ],
          [
            -118.260064,
            36.57241
          ],
          [
            -118.260048,
            36.572517
          ],
          [
            -118.260399,
            36.572238
          ],
          [
            -118.260491,
            36.57204
          ],
          [
            -118.260575,
            36.571842
          ],
          [
            -118.260666,
            36.572093
          ],
          [
            -118.260697,
            36.57188
          ],
          [
            -118.260834,
            36.571697
          ],
          [
            -118.261147,
            36.571502
          ],
          [
            -118.261117,
            36.571239
          ],
          [
            -118.261368,
            36.57106
          ],
          [
            -118.261353,
            36.571262
          ],
          [
            -118.261422,
            36.571266
          ],
          [
            -118.261551,
            36.57114
          ],
          [
            -118.26162,
            36.570972
          ],
          [
            -118.261811,
            36.570823
          ],
          [
            -118.261979,
            36.570652
          ],
          [
            -118.262101,
            36.570495
          ],
          [
            -118.262116,
            36.570415
          ],
          [
            -118.261971,
            36.570503
          ],
          [
            -118.261956,
            36.570442
          ],
          [
            -118.262047,
            36.570327
          ],
          [
            -118.262024,
            36.570304
          ],
          [
            -118.261849,
            36.570362
          ],
          [
            -118.261857,
            36.570304
          ],
          [
            -118.262032,
            36.570163
          ],
          [
            -118.26204,
            36.570102
          ],
          [
            -118.261666,
            36.570281
          ],
          [
            -118.261567,
            36.570301
          ],
          [
            -118.261475,
            36.570293
          ],
          [
            -118.26149,
            36.570262
          ],
          [
            -118.261605,
            36.570205
          ],
          [
            -118.261628,
            36.570152
          ],
          [
            -118.261506,
            36.570167
          ],
          [
            -118.261437,
            36.570156
          ],
          [
            -118.26149,
            36.570087
          ],
          [
            -118.26159,
            36.570034
          ],
          [
            -118.261666,
            36.56995
          ],
          [
            -118.261651,
            36.56985
          ],
          [
            -118.261712,
            36.569755
          ],
          [
            -118.26175,
            36.569671
          ],
          [
            -118.261712,
            36.569641
          ],
          [
            -118.261727,
            36.569591
          ],
          [
            -118.261788,
            36.569561
          ],
          [
            -118.261933,
            36.569564
          ],
          [
            -118.262078,
            36.56945
          ],
          [
            -118.262192,
            36.56932
          ],
          [
            -118.262177,
            36.569255
          ],
          [
            -118.262009,
            36.569355
          ],
          [
            -118.261857,
            36.569404
          ],
          [
            -118.261727,
            36.569355
          ],
          [
            -118.261574,
            36.569396
          ],
          [
            -118.26146,
            36.569351
          ],
          [
            -118.261315,
            36.569301
          ],
          [
            -118.261109,
            36.569297
          ],
          [
            -118.261109,
            36.569267
          ],
          [
            -118.261178,
            36.569206
          ],
          [
            -118.261147,
            36.569187
          ],
          [
            -118.261048,
            36.569206
          ],
          [
            -118.261002,
            36.569179
          ],
          [
            -118.26104,
            36.569141
          ],
          [
            -118.261147,
            36.569076
          ],
          [
            -118.261277,
            36.569053
          ],
          [
            -118.261376,
            36.568992
          ],
          [
            -118.261506,
            36.569019
          ],
          [
            -118.261658,
            36.568962
          ],
          [
            -118.261597,
            36.568939
          ],
          [
            -118.261498,
            36.568935
          ],
          [
            -118.261467,
            36.568897
          ],
          [
            -118.261551,
            36.568733
          ],
          [
            -118.261605,
            36.56866
          ],
          [
            -118.261727,
            36.568576
          ],
          [
            -118.262131,
            36.568492
          ],
          [
            -118.262246,
            36.568386
          ],
          [
            -118.262436,
            36.568237
          ],
          [
            -118.262497,
            36.568111
          ],
          [
            -118.262772,
            36.567977
          ],
          [
            -118.262887,
            36.567867
          ],
          [
            -118.263032,
            36.567787
          ],
          [
            -118.263146,
            36.567771
          ],
          [
            -118.263207,
            36.567718
          ],
          [
            -118.263283,
            36.567695
          ],
          [
            -118.263482,
            36.567569
          ],
          [
            -118.263726,
            36.567577
          ],
          [
            -118.263817,
            36.567504
          ],
          [
            -118.263932,
            36.567478
          ],
          [
            -118.264054,
            36.567382
          ],
          [
            -118.264123,
            36.567401
          ],
          [
            -118.264161,
            36.567478
          ],
          [
            -118.264382,
            36.567394
          ],
          [
            -118.264557,
            36.567169
          ],
          [
            -118.264634,
            36.567096
          ],
          [
            -118.264756,
            36.567077
          ],
          [
            -118.264847,
            36.567134
          ],
          [
            -118.264985,
            36.567295
          ],
          [
            -118.265038,
            36.567256
          ],
          [
            -118.265023,
            36.567203
          ],
          [
            -118.265122,
            36.56715
          ],
          [
            -118.265214,
            36.567054
          ],
          [
            -118.265282,
            36.56707
          ],
          [
            -118.265664,
            36.566967
          ],
          [
            -118.266068,
            36.566883
          ],
          [
            -118.266541,
            36.56689
          ],
          [
            -118.266709,
            36.56686
          ],
          [
            -118.266945,
            36.566818
          ],
          [
            -118.267167,
            36.566772
          ],
          [
            -118.267296,
            36.566799
          ],
          [
            -118.267579,
            36.566734
          ],
          [
            -118.268387,
            36.566642
          ],
          [
            -118.268502,
            36.56665
          ],
          [
            -118.268502,
            36.566696
          ],
          [
            -118.268364,
            36.566787
          ],
          [
            -118.26812,
            36.566902
          ],
          [
            -118.267914,
            36.566944
          ],
          [
            -118.267769,
            36.566951
          ],
          [
            -118.267769,
            36.566967
          ],
          [
            -118.267914,
            36.566997
          ],
          [
            -118.267914,
            36.567012
          ],
          [
            -118.267785,
            36.567043
          ],
          [
            -118.267716,
            36.567062
          ],
          [
            -118.267762,
            36.567085
          ],
          [
            -118.26783,
            36.567096
          ],
          [
            -118.26783,
            36.567131
          ],
          [
            -118.267792,
            36.567195
          ],
          [
            -118.267548,
            36.56734
          ],
          [
            -118.267457,
            36.567367
          ],
          [
            -118.267365,
            36.567432
          ],
          [
            -118.267357,
            36.567466
          ],
          [
            -118.267563,
            36.567459
          ],
          [
            -118.267785,
            36.567413
          ],
          [
            -118.267792,
            36.567436
          ],
          [
            -118.267716,
            36.567489
          ],
          [
            -118.267815,
            36.567481
          ],
          [
            -118.268128,
            36.567344
          ],
          [
            -118.268532,
            36.567176
          ],
          [
            -118.268609,
            36.567104
          ],
          [
            -118.268677,
            36.567066
          ],
          [
            -118.26867,
            36.567146
          ],
          [
            -118.269333,
            36.566867
          ],
          [
            -118.269555,
            36.566787
          ],
          [
            -118.269745,
            36.566787
          ],
          [
            -118.270012,
            36.566722
          ],
          [
            -118.270066,
            36.566635
          ],
          [
            -118.270073,
            36.566524
          ],
          [
            -118.270142,
            36.566307
          ],
          [
            -118.270134,
            36.566093
          ],
          [
            -118.270196,
            36.565979
          ],
          [
            -118.270226,
            36.565868
          ],
          [
            -118.270394,
            36.565876
          ],
          [
            -118.270501,
            36.565784
          ],
          [
            -118.270806,
            36.565734
          ],
          [
            -118.271126,
            36.565624
          ],
          [
            -118.271241,
            36.565612
          ],
          [
            -118.271409,
            36.56557
          ],
          [
            -118.271493,
            36.565597
          ],
          [
            -118.271775,
            36.565567
          ],
          [
            -118.271927,
            36.565505
          ],
          [
            -118.271958,
            36.565441
          ],
          [
            -118.271904,
            36.565395
          ],
          [
            -118.271805,
            36.565372
          ],
          [
            -118.271721,
            36.565368
          ],
          [
            -118.271676,
            36.565349
          ],
          [
            -118.271737,
            36.56533
          ],
          [
            -118.271966,
            36.565326
          ],
          [
            -118.272072,
            36.565273
          ],
          [
            -118.27224,
            36.565273
          ],
          [
            -118.272408,
            36.565185
          ],
          [
            -118.27266,
            36.565086
          ],
          [
            -118.272721,
            36.565006
          ],
          [
            -118.272782,
            36.56496
          ],
          [
            -118.273072,
            36.564861
          ],
          [
            -118.273171,
            36.564723
          ],
          [
            -118.27327,
            36.564632
          ],
          [
            -118.273659,
            36.564407
          ],
          [
            -118.273751,
            36.564292
          ],
          [
            -118.274102,
            36.564144
          ],
          [
            -118.274422,
            36.563999
          ],
          [
            -118.274788,
            36.563854
          ],
          [
            -118.274926,
            36.563865
          ],
          [
            -118.275185,
            36.563804
          ],
          [
            -118.275353,
            36.563713
          ],
          [
            -118.275437,
            36.563682
          ],
          [
            -118.275551,
            36.563678
          ],
          [
            -118.275643,
            36.563694
          ],
          [
            -118.27575,
            36.563659
          ],
          [
            -118.275971,
            36.563564
          ],
          [
            -118.276299,
            36.563461
          ],
          [
            -118.276413,
            36.563484
          ],
          [
            -118.276528,
            36.563411
          ],
          [
            -118.276597,
            36.563373
          ],
          [
            -118.276658,
            36.563362
          ],
          [
            -118.276688,
            36.563404
          ],
          [
            -118.276696,
            36.563461
          ],
          [
            -118.276734,
            36.563503
          ],
          [
            -118.276787,
            36.563488
          ],
          [
            -118.276818,
            36.563423
          ],
          [
            -118.276879,
            36.563381
          ],
          [
            -118.276932,
            36.563385
          ],
          [
            -118.27697,
            36.56343
          ],
          [
            -118.277031,
            36.563457
          ],
          [
            -118.277192,
            36.563423
          ],
          [
            -118.277344,
            36.563438
          ],
          [
            -118.277695,
            36.563358
          ],
          [
            -118.277848,
            36.563304
          ],
          [
            -118.278252,
            36.563228
          ],
          [
            -118.278496,
            36.563251
          ],
          [
            -118.278695,
            36.563156
          ],
          [
            -118.278832,
            36.563068
          ],
          [
            -118.278939,
            36.563049
          ],
          [
            -118.278985,
            36.563018
          ],
          [
            -118.279183,
            36.562969
          ],
          [
            -118.279412,
            36.562999
          ],
          [
            -118.279473,
            36.562999
          ],
          [
            -118.279503,
            36.562969
          ],
          [
            -118.279564,
            36.562946
          ],
          [
            -118.279656,
            36.562923
          ],
          [
            -118.279748,
            36.562938
          ],
          [
            -118.27987,
            36.562995
          ],
          [
            -118.279946,
            36.562984
          ],
          [
            -118.280083,
            36.56298
          ],
          [
            -118.280144,
            36.56295
          ],
          [
            -118.280205,
            36.56295
          ],
          [
            -118.280274,
            36.562919
          ],
          [
            -118.28035,
            36.56287
          ],
          [
            -118.280419,
            36.562805
          ],
          [
            -118.280442,
            36.562725
          ],
          [
            -118.280533,
            36.56261
          ],
          [
            -118.280571,
            36.562587
          ],
          [
            -118.280663,
            36.562583
          ],
          [
            -118.280739,
            36.562568
          ],
          [
            -118.280983,
            36.562641
          ],
          [
            -118.28109,
            36.562686
          ],
          [
            -118.28122,
            36.562591
          ],
          [
            -118.281243,
            36.562709
          ],
          [
            -118.281266,
            36.562698
          ],
          [
            -118.281327,
            36.562591
          ],
          [
            -118.281388,
            36.562484
          ],
          [
            -118.281449,
            36.562427
          ],
          [
            -118.281464,
            36.562454
          ],
          [
            -118.281456,
            36.562541
          ],
          [
            -118.281472,
            36.562595
          ],
          [
            -118.281495,
            36.56261
          ],
          [
            -118.281525,
            36.562526
          ],
          [
            -118.281563,
            36.562488
          ],
          [
            -118.281586,
            36.5625
          ],
          [
            -118.281571,
            36.56266
          ],
          [
            -118.281601,
            36.562652
          ],
          [
            -118.281716,
            36.562492
          ],
          [
            -118.281777,
            36.562355
          ],
          [
            -118.281868,
            36.562274
          ],
          [
            -118.28193,
            36.562179
          ],
          [
            -118.282006,
            36.56208
          ],
          [
            -118.282105,
            36.561969
          ],
          [
            -118.28212,
            36.562023
          ],
          [
            -118.282143,
            36.562088
          ],
          [
            -118.282181,
            36.562103
          ],
          [
            -118.282258,
            36.562076
          ],
          [
            -118.282311,
            36.562034
          ],
          [
            -118.282303,
            36.561965
          ],
          [
            -118.282311,
            36.561939
          ],
          [
            -118.282372,
            36.561965
          ],
          [
            -118.282425,
            36.561977
          ],
          [
            -118.282456,
            36.561973
          ],
          [
            -118.282395,
            36.561859
          ],
          [
            -118.282403,
            36.56182
          ],
          [
            -118.282433,
            36.56182
          ],
          [
            -118.282502,
            36.56187
          ],
          [
            -118.282525,
            36.561862
          ],
          [
            -118.282433,
            36.561683
          ],
          [
            -118.282464,
            36.561664
          ],
          [
            -118.282586,
            36.561771
          ],
          [
            -118.282746,
            36.561862
          ],
          [
            -118.282776,
            36.561855
          ],
          [
            -118.282578,
            36.56163
          ],
          [
            -118.28257,
            36.561588
          ],
          [
            -118.282616,
            36.561603
          ],
          [
            -118.282738,
            36.561679
          ],
          [
            -118.282837,
            36.561733
          ],
          [
            -118.282853,
            36.561714
          ],
          [
            -118.282792,
            36.561637
          ],
          [
            -118.282753,
            36.561565
          ],
          [
            -118.282662,
            36.561462
          ],
          [
            -118.2827,
            36.561466
          ],
          [
            -118.282807,
            36.561534
          ],
          [
            -118.282967,
            36.561599
          ],
          [
            -118.28299,
            36.561592
          ],
          [
            -118.282784,
            36.561397
          ],
          [
            -118.28267,
            36.561328
          ],
          [
            -118.2827,
            36.561321
          ],
          [
            -118.283249,
            36.561527
          ],
          [
            -118.283257,
            36.561504
          ],
          [
            -118.28315,
            36.56142
          ],
          [
            -118.283051,
            36.561313
          ],
          [
            -118.282944,
            36.561237
          ],
          [
            -118.282959,
            36.561214
          ],
          [
            -118.28328,
            36.56134
          ],
          [
            -118.283608,
            36.561481
          ],
          [
            -118.283593,
            36.561454
          ],
          [
            -118.28341,
            36.56129
          ],
          [
            -118.283478,
            36.561313
          ],
          [
            -118.2836,
            36.561374
          ],
          [
            -118.283791,
            36.561431
          ],
          [
            -118.283791,
            36.561408
          ],
          [
            -118.283623,
            36.561286
          ],
          [
            -118.283677,
            36.56129
          ],
          [
            -118.283844,
            36.561363
          ],
          [
            -118.284241,
            36.561416
          ],
          [
            -118.284363,
            36.561466
          ],
          [
            -118.284379,
            36.561439
          ],
          [
            -118.284249,
            36.561328
          ],
          [
            -118.284089,
            36.561141
          ],
          [
            -118.284089,
            36.561119
          ],
          [
            -118.284119,
            36.561119
          ],
          [
            -118.28415,
            36.561141
          ],
          [
            -118.284195,
            36.561157
          ],
          [
            -118.284249,
            36.561149
          ],
          [
            -118.284646,
            36.56137
          ],
          [
            -118.284562,
            36.561237
          ],
          [
            -118.284485,
            36.561161
          ],
          [
            -118.28447,
            36.561035
          ],
          [
            -118.284508,
            36.560977
          ],
          [
            -118.284546,
            36.561092
          ],
          [
            -118.284607,
            36.561119
          ],
          [
            -118.284737,
            36.561145
          ],
          [
            -118.284813,
            36.561187
          ],
          [
            -118.28489,
            36.561267
          ],
          [
            -118.284859,
            36.561168
          ],
          [
            -118.284768,
            36.561077
          ],
          [
            -118.28473,
            36.561019
          ],
          [
            -118.284737,
            36.561
          ],
          [
            -118.284798,
            36.561054
          ],
          [
            -118.284859,
            36.561096
          ],
          [
            -118.28489,
            36.561096
          ],
          [
            -118.284829,
            36.561035
          ],
          [
            -118.284821,
            36.560977
          ],
          [
            -118.284859,
            36.56092
          ],
          [
            -118.284905,
            36.560844
          ],
          [
            -118.284935,
            36.560871
          ],
          [
            -118.284905,
            36.560928
          ],
          [
            -118.284935,
            36.560955
          ],
          [
            -118.284974,
            36.560855
          ],
          [
            -118.285004,
            36.560878
          ],
          [
            -118.285004,
            36.561016
          ],
          [
            -118.285035,
            36.561008
          ],
          [
            -118.285042,
            36.560943
          ],
          [
            -118.285058,
            36.56089
          ],
          [
            -118.285111,
            36.561023
          ],
          [
            -118.285096,
            36.560871
          ],
          [
            -118.285119,
            36.560878
          ],
          [
            -118.285149,
            36.560958
          ],
          [
            -118.285164,
            36.561004
          ],
          [
            -118.28521,
            36.561058
          ],
          [
            -118.285386,
            36.561073
          ],
          [
            -118.285462,
            36.561103
          ],
          [
            -118.285508,
            36.561088
          ],
          [
            -118.285302,
            36.561008
          ],
          [
            -118.285355,
            36.560993
          ],
          [
            -118.285683,
            36.561046
          ],
          [
            -118.285454,
            36.560951
          ],
          [
            -118.285775,
            36.561016
          ],
          [
            -118.286156,
            36.560974
          ],
          [
            -118.286477,
            36.560993
          ],
          [
            -118.286835,
            36.560947
          ],
          [
            -118.286843,
            36.560928
          ],
          [
            -118.286675,
            36.560905
          ],
          [
            -118.286446,
            36.560852
          ],
          [
            -118.286568,
            36.560817
          ],
          [
            -118.286286,
            36.560798
          ],
          [
            -118.286461,
            36.56076
          ],
          [
            -118.285912,
            36.560657
          ],
          [
            -118.285798,
            36.560646
          ],
          [
            -118.285836,
            36.560626
          ],
          [
            -118.28595,
            36.560604
          ],
          [
            -118.286027,
            36.560619
          ],
          [
            -118.286049,
            36.560569
          ],
          [
            -118.286179,
            36.560565
          ],
          [
            -118.286248,
            36.560554
          ],
          [
            -118.286194,
            36.560489
          ],
          [
            -118.286248,
            36.560478
          ],
          [
            -118.286423,
            36.560497
          ],
          [
            -118.2864,
            36.56042
          ],
          [
            -118.286538,
            36.560462
          ],
          [
            -118.286568,
            36.560428
          ],
          [
            -118.286522,
            36.560386
          ],
          [
            -118.286713,
            36.560363
          ],
          [
            -118.286973,
            36.560474
          ],
          [
            -118.286759,
            36.560302
          ],
          [
            -118.286202,
            36.560226
          ],
          [
            -118.286446,
            36.560207
          ],
          [
            -118.286683,
            36.560207
          ],
          [
            -118.287018,
            36.560184
          ],
          [
            -118.28685,
            36.560138
          ],
          [
            -118.286538,
            36.560089
          ],
          [
            -118.286553,
            36.560073
          ],
          [
            -118.286637,
            36.56007
          ],
          [
            -118.286721,
            36.560073
          ],
          [
            -118.286583,
            36.56002
          ],
          [
            -118.286973,
            36.559928
          ],
          [
            -118.286652,
            36.559909
          ],
          [
            -118.28695,
            36.559883
          ],
          [
            -118.286644,
            36.559848
          ],
          [
            -118.286721,
            36.559799
          ],
          [
            -118.286622,
            36.559795
          ],
          [
            -118.286622,
            36.55968
          ],
          [
            -118.286461,
            36.559551
          ],
          [
            -118.286614,
            36.559631
          ],
          [
            -118.286759,
            36.559734
          ],
          [
            -118.286873,
            36.559738
          ],
          [
            -118.28698,
            36.559703
          ],
          [
            -118.287118,
            36.559688
          ],
          [
            -118.287255,
            36.559715
          ],
          [
            -118.287385,
            36.559757
          ],
          [
            -118.287652,
            36.559913
          ],
          [
            -118.287758,
            36.55994
          ],
          [
            -118.28801,
            36.559925
          ],
          [
            -118.288254,
            36.559944
          ],
          [
            -118.288613,
            36.559997
          ],
          [
            -118.288415,
            36.559875
          ],
          [
            -118.288071,
            36.5597
          ],
          [
            -118.28846,
            36.559677
          ],
          [
            -118.287964,
            36.559471
          ],
          [
            -118.288239,
            36.559455
          ],
          [
            -118.288445,
            36.559497
          ],
          [
            -118.288193,
            36.559394
          ],
          [
            -118.287636,
            36.559062
          ],
          [
            -118.287369,
            36.558864
          ],
          [
            -118.287827,
            36.558937
          ],
          [
            -118.287766,
            36.558887
          ],
          [
            -118.287522,
            36.558712
          ],
          [
            -118.2874,
            36.558639
          ],
          [
            -118.287354,
            36.558578
          ],
          [
            -118.287575,
            36.558605
          ],
          [
            -118.288178,
            36.558746
          ],
          [
            -118.28872,
            36.558807
          ],
          [
            -118.288987,
            36.558864
          ],
          [
            -118.289269,
            36.558898
          ],
          [
            -118.290024,
            36.558887
          ],
          [
            -118.290452,
            36.55886
          ],
          [
            -118.291138,
            36.558929
          ],
          [
            -118.291276,
            36.559005
          ],
          [
            -118.291375,
            36.559108
          ],
          [
            -118.291459,
            36.559276
          ],
          [
            -118.29168,
            36.559444
          ],
          [
            -118.291878,
            36.559497
          ],
          [
            -118.292023,
            36.559635
          ],
          [
            -118.292176,
            36.559677
          ],
          [
            -118.292206,
            36.55981
          ],
          [
            -118.292382,
            36.559932
          ],
          [
            -118.292573,
            36.560043
          ],
          [
            -118.292695,
            36.560264
          ],
          [
            -118.292862,
            36.560382
          ],
          [
            -118.293084,
            36.560474
          ],
          [
            -118.293122,
            36.560535
          ],
          [
            -118.293122,
            36.560569
          ],
          [
            -118.293053,
            36.560604
          ],
          [
            -118.292901,
            36.560699
          ],
          [
            -118.292923,
            36.560821
          ],
          [
            -118.292977,
            36.560928
          ],
          [
            -118.292634,
            36.561286
          ],
          [
            -118.292565,
            36.56142
          ],
          [
            -118.292519,
            36.56155
          ],
          [
            -118.292481,
            36.561923
          ],
          [
            -118.292489,
            36.562068
          ],
          [
            -118.292542,
            36.56224
          ],
          [
            -118.292717,
            36.562553
          ],
          [
            -118.292824,
            36.562725
          ],
          [
            -118.293084,
            36.562889
          ],
          [
            -118.293168,
            36.563072
          ],
          [
            -118.292794,
            36.562889
          ],
          [
            -118.292283,
            36.56266
          ],
          [
            -118.292038,
            36.562511
          ],
          [
            -118.292153,
            36.56274
          ],
          [
            -118.292191,
            36.562812
          ],
          [
            -118.292458,
            36.563175
          ],
          [
            -118.29258,
            36.563365
          ],
          [
            -118.292626,
            36.563465
          ],
          [
            -118.292679,
            36.563526
          ],
          [
            -118.292534,
            36.56369
          ],
          [
            -118.292656,
            36.563823
          ],
          [
            -118.292573,
            36.563938
          ],
          [
            -118.292557,
            36.564044
          ],
          [
            -118.292634,
            36.564136
          ],
          [
            -118.292725,
            36.564151
          ],
          [
            -118.292687,
            36.56422
          ],
          [
            -118.292504,
            36.564342
          ],
          [
            -118.292542,
            36.564514
          ],
          [
            -118.292466,
            36.564613
          ],
          [
            -118.292397,
            36.564739
          ],
          [
            -118.292542,
            36.564956
          ],
          [
            -118.292534,
            36.565135
          ],
          [
            -118.292565,
            36.565273
          ],
          [
            -118.29271,
            36.565368
          ],
          [
            -118.292756,
            36.565479
          ],
          [
            -118.292634,
            36.565582
          ],
          [
            -118.292397,
            36.566001
          ],
          [
            -118.292473,
            36.566108
          ],
          [
            -118.292473,
            36.566326
          ],
          [
            -118.292573,
            36.56641
          ],
          [
            -118.292504,
            36.56652
          ],
          [
            -118.29271,
            36.566604
          ],
          [
            -118.292702,
            36.566722
          ],
          [
            -118.292763,
            36.566783
          ],
          [
            -118.292733,
            36.566867
          ],
          [
            -118.292832,
            36.567024
          ],
          [
            -118.292954,
            36.56707
          ],
          [
            -118.292954,
            36.567222
          ],
          [
            -118.293038,
            36.567623
          ],
          [
            -118.292817,
            36.568145
          ],
          [
            -118.292763,
            36.568397
          ],
          [
            -118.29271,
            36.568706
          ],
          [
            -118.292717,
            36.56882
          ],
          [
            -118.292717,
            36.568946
          ],
          [
            -118.292679,
            36.569175
          ],
          [
            -118.292573,
            36.569435
          ],
          [
            -118.292595,
            36.569644
          ],
          [
            -118.292557,
            36.569999
          ],
          [
            -118.292496,
            36.570373
          ],
          [
            -118.292443,
            36.570911
          ],
          [
            -118.292328,
            36.571128
          ],
          [
            -118.291985,
            36.571403
          ],
          [
            -118.291878,
            36.571559
          ],
          [
            -118.29181,
            36.57172
          ],
          [
            -118.291802,
            36.571788
          ],
          [
            -118.291733,
            36.571887
          ],
          [
            -118.291581,
            36.572219
          ],
          [
            -118.291535,
            36.572353
          ],
          [
            -118.291482,
            36.572486
          ],
          [
            -118.291497,
            36.572753
          ],
          [
            -118.29155,
            36.573081
          ],
          [
            -118.291695,
            36.5736
          ],
          [
            -118.29181,
            36.573818
          ],
          [
            -118.292038,
            36.574043
          ],
          [
            -118.292222,
            36.574302
          ],
          [
            -118.292428,
            36.574478
          ],
          [
            -118.292641,
            36.574813
          ],
          [
            -118.293023,
            36.575031
          ],
          [
            -118.293358,
            36.575321
          ],
          [
            -118.293641,
            36.575576
          ],
          [
            -118.293938,
            36.575824
          ],
          [
            -118.294579,
            36.576126
          ],
          [
            -118.295174,
            36.576328
          ],
          [
            -118.29535,
            36.576374
          ],
          [
            -118.295624,
            36.576438
          ],
          [
            -118.29551,
            36.576705
          ],
          [
            -118.295487,
            36.576908
          ],
          [
            -118.295304,
            36.576995
          ],
          [
            -118.295281,
            36.577186
          ],
          [
            -118.295189,
            36.577228
          ],
          [
            -118.295144,
            36.577308
          ],
          [
            -118.294999,
            36.577308
          ],
          [
            -118.295037,
            36.577415
          ],
          [
            -118.295044,
            36.57751
          ],
          [
            -118.294968,
            36.577724
          ],
          [
            -118.294922,
            36.577716
          ],
          [
            -118.294884,
            36.577716
          ],
          [
            -118.294793,
            36.577697
          ],
          [
            -118.294709,
            36.577686
          ],
          [
            -118.294678,
            36.577678
          ],
          [
            -118.294579,
            36.577678
          ],
          [
            -118.294526,
            36.577667
          ],
          [
            -118.29435,
            36.577594
          ],
          [
            -118.294106,
            36.577522
          ],
          [
            -118.29387,
            36.57748
          ],
          [
            -118.293717,
            36.577468
          ],
          [
            -118.293549,
            36.577396
          ],
          [
            -118.293503,
            36.577419
          ],
          [
            -118.293152,
            36.578041
          ],
          [
            -118.292641,
            36.578308
          ],
          [
            -118.292473,
            36.578475
          ]
        ]
      },
      "properties": {
        "name": "Mount Whitney Trail — real GPS trace",
        "type": "route",
        "source": "GaiaGPS 'Mount Whitney' known route (GPX)",
        "trkpt_count": 830,
        "one_way_length_miles": 9.85,
        "note": "Actual trail geometry — includes the 99 switchbacks between Trail Camp and Trail Crest."
      }
    }
  ]
}